*******************************************************************************
Ephemeris / WWW_USER Wed Mar 14 15:52:10 2018 Pasadena, USA      / Horizons    
*******************************************************************************
Target body name: Proteus (808)                   {source: nep081xl}
Center body name: Solar System Barycenter (0)     {source: DE431mx}
Center-site name: BODY CENTER
*******************************************************************************
Start time      : A.D. 2000-Jan-01 00:00:00.0000 TDB
Stop  time      : A.D. 2001-Jan-01 00:00:00.0000 TDB
Step-size       : 7200 minutes
*******************************************************************************
Center geodetic : 0.00000000,0.00000000,0.0000000 {E-lon(deg),Lat(deg),Alt(km)}
Center cylindric: 0.00000000,0.00000000,0.0000000 {E-lon(deg),Dxy(km),Dz(km)}
Center radii    : (undefined)                                                  
Output units    : AU-D                                                         
Output type     : GEOMETRIC cartesian states
Output format   : 2 (position and velocity)
Reference frame : ICRF/J2000.0                                                 
Coordinate systm: Ecliptic and Mean Equinox of Reference Epoch                 
*******************************************************************************
JDTDB
   X     Y     Z
   VX    VY    VZ
*******************************************************************************
$$SOE
2451754.500000000 = A.D. 2000-Jul-29 00:00:00.0000 TDB 
   1.734162109000022E+01 -2.461796659800433E+01  1.075767261606951E-01
   2.206435695953677E-03 -2.335002226426388E-03 -1.491581288341529E-03
2451759.500000000 = A.D. 2000-Aug-03 00:00:00.0000 TDB 
   1.735576276625298E+01 -2.460896916292851E+01  1.064600740421656E-01
   4.014843672463934E-03  5.882030351241098E-03  7.921866422693777E-04
2451764.500000000 = A.D. 2000-Aug-08 00:00:00.0000 TDB 
   1.736721549517214E+01 -2.459929163987540E+01  1.067023556665289E-01
   6.841672284013474E-05 -1.798671094503796E-03 -4.105255378021326E-04
2451769.500000000 = A.D. 2000-Aug-13 00:00:00.0000 TDB 
   1.738095594157017E+01 -2.459104499450117E+01  1.054655830471059E-01
   5.833498781116690E-03  4.738958660258199E-03 -3.839339391062289E-04
2451774.500000000 = A.D. 2000-Aug-18 00:00:00.0000 TDB 
   1.739297374600958E+01 -2.458070312766004E+01  1.057104620868262E-01
  -1.302757301343177E-03 -1.365993914290868E-04  7.681453760291401E-04
2451779.500000000 = A.D. 2000-Aug-23 00:00:00.0000 TDB 
   1.740599508762973E+01 -2.457292780132697E+01  1.045887093699183E-01
   6.631780205969959E-03  2.694843162166314E-03 -1.470667737707460E-03
2451784.500000000 = A.D. 2000-Aug-28 00:00:00.0000 TDB 
   1.741879267960120E+01 -2.456229091246793E+01  1.046111842857847E-01
  -1.479120443133234E-03  2.138598999755758E-03  1.678857856129214E-03
2451789.500000000 = A.D. 2000-Sep-02 00:00:00.0000 TDB 
   1.743099705599080E+01 -2.455455829664461E+01  1.038027897852019E-01
   6.162577095122837E-03  3.853593915199537E-04 -2.130362535924242E-03
2451794.500000000 = A.D. 2000-Sep-07 00:00:00.0000 TDB 
   1.744454530980467E+01 -2.454408351001433E+01  1.034457153914508E-01
  -4.073058359827831E-04  4.320083174801473E-03  2.038931280807823E-03
2451799.500000000 = A.D. 2000-Sep-12 00:00:00.0000 TDB 
   1.745608680414855E+01 -2.453594677469367E+01  1.030515255583312E-01
   4.569481278413527E-03 -1.475325739344654E-03 -2.159438807979173E-03
2451804.500000000 = A.D. 2000-Sep-17 00:00:00.0000 TDB 
   1.747012132404900E+01 -2.452603535163226E+01  1.022764102351006E-01
   1.578726150056915E-03  5.728482284615860E-03  1.735069919462617E-03
2451809.500000000 = A.D. 2000-Sep-22 00:00:00.0000 TDB 
   1.748135610365615E+01 -2.451716802333855E+01  1.022700043963549E-01
   2.346086085997705E-03 -2.310552841470719E-03 -1.549785848210060E-03
2451814.500000000 = A.D. 2000-Sep-27 00:00:00.0000 TDB 
   1.749545731713068E+01 -2.450804262615537E+01  1.011686892341663E-01
   3.861913160873149E-03  5.928589827570603E-03  8.622538263348888E-04
2451819.500000000 = A.D. 2000-Oct-02 00:00:00.0000 TDB 
   1.750683288145068E+01 -2.449834207325539E+01  1.014027686952443E-01
   1.806704256862157E-04 -1.857625223125702E-03 -4.885997082059698E-04
2451824.500000000 = A.D. 2000-Oct-07 00:00:00.0000 TDB 
   1.752055792840919E+01 -2.448997850180580E+01  1.001670046106259E-01
   5.731477856874802E-03  4.861703499838084E-03 -3.064264850373043E-04
2451829.500000000 = A.D. 2000-Oct-12 00:00:00.0000 TDB 
   1.753247649805979E+01 -2.447959667132943E+01  1.004186041203037E-01
  -1.256891684537667E-03 -2.550890564079177E-04  6.959403334937633E-04
2451834.500000000 = A.D. 2000-Oct-17 00:00:00.0000 TDB 
   1.754549752760514E+01 -2.447172928775415E+01  9.928188718580844E-02
   6.606945690174079E-03  2.859571263712022E-03 -1.408940926433100E-03
2451839.500000000 = A.D. 2000-Oct-22 00:00:00.0000 TDB 
   1.755818997540721E+01 -2.446102418348092E+01  9.932370169175637E-02
  -1.518674528350995E-03  2.000183566294319E-03  1.634368271499348E-03
2451844.500000000 = A.D. 2000-Oct-27 00:00:00.0000 TDB 
   1.757039347130353E+01 -2.445322876037544E+01  9.849002145288581E-02
   6.219799240010854E-03  5.441043169533769E-04 -2.105107572393415E-03
2451849.500000000 = A.D. 2000-Nov-01 00:00:00.0000 TDB 
   1.758384608514884E+01 -2.444265522039616E+01  9.816022002606754E-02
  -5.212364888421351E-04  4.209169522530642E-03  2.034682392598462E-03
2451854.500000000 = A.D. 2000-Nov-06 00:00:00.0000 TDB 
   1.759536856844865E+01 -2.443448231930962E+01  9.773873894413544E-02
   4.689637307088182E-03 -1.365960163892804E-03 -2.178454119079946E-03
2451859.500000000 = A.D. 2000-Nov-11 00:00:00.0000 TDB 
   1.760932949279425E+01 -2.442445101722231E+01  9.698953675122607E-02
   1.422733818074741E-03  5.685754281620023E-03  1.773659657382764E-03
2451864.500000000 = A.D. 2000-Nov-16 00:00:00.0000 TDB 
   1.762051735067372E+01 -2.441556382353109E+01  9.696078381007862E-02
   2.487126232848766E-03 -2.279254595048506E-03 -1.605710772909864E-03
2451869.500000000 = A.D. 2000-Nov-21 00:00:00.0000 TDB 
   1.763457519125775E+01 -2.440631181090357E+01  9.587492760660132E-02
   3.707021720481358E-03  5.970855984785934E-03  9.321357013336465E-04
2451874.500000000 = A.D. 2000-Nov-26 00:00:00.0000 TDB 
   1.764587555447711E+01 -2.439658992565760E+01  9.609872669111283E-02
   2.946828598267077E-04 -1.911471085205993E-03 -5.650143594729221E-04
2451879.500000000 = A.D. 2000-Dec-01 00:00:00.0000 TDB 
   1.765958462921123E+01 -2.438810826744618E+01  9.486438377583566E-02
   5.623392651050513E-03  4.979228450709224E-03 -2.285137513027078E-04
2451884.500000000 = A.D. 2000-Dec-06 00:00:00.0000 TDB 
   1.767140544118198E+01 -2.437768724812672E+01  9.512213342183640E-02
  -1.206490773928958E-03 -3.722669773086957E-04  6.217864401498798E-04
2451889.500000000 = A.D. 2000-Dec-11 00:00:00.0000 TDB 
   1.768442501503291E+01 -2.436972525578457E+01  9.397245508540751E-02
   6.577521230736077E-03  3.022167338459026E-03 -1.346760181003456E-03
2451894.500000000 = A.D. 2000-Dec-16 00:00:00.0000 TDB 
   1.769701067205976E+01 -2.435895412288722E+01  9.403379620560873E-02
  -1.551063984799845E-03  1.861997246804160E-03  1.586954737189124E-03
2451899.500000000 = A.D. 2000-Dec-21 00:00:00.0000 TDB 
   1.770921231781200E+01 -2.435109511513672E+01  9.317528504916522E-02
   6.272928923478009E-03  7.058794062219349E-04 -2.076620311401407E-03
2451904.500000000 = A.D. 2000-Dec-26 00:00:00.0000 TDB 
   1.772256756315275E+01 -2.434042604374537E+01  9.287161379685184E-02
  -6.316134458235444E-04  4.096068822431085E-03  2.028799440230775E-03
2451909.500000000 = A.D. 2000-Dec-31 00:00:00.0000 TDB 
   1.773407304955020E+01 -2.433221626573108E+01  9.242172480412826E-02
   4.805287170499712E-03 -1.252335736825666E-03 -2.193758962317360E-03
